NORAD_CAT_ID,OBJECT_NAME,OBJECT_TYPE,EPOCH,MEAN_MOTION,ECCENTRICITY,INCLINATION,RA_OF_ASC_NODE,ARG_OF_PERICENTER,MEAN_ANOMALY,BSTAR,MEAN_MOTION_DOT,MEAN_MOTION_DDOT,TLE_LINE0,TLE_LINE1,TLE_LINE2,SEMIMAJOR_AXIS,PERIOD,APOGEE,PERIGEE,DECAYED
56803.0,STARLINK-6029,PAYLOAD,2023-11-06 12:20:47,14.98344014,0.0002761,69.999,338.1061,268.2714,91.8129,0.00021992,2.533e-05,0.0,0 STARLINK-6029,1 56803U 23078AN  23310.51444218  .00002533  00000-0  21992-3 0  9999,2 56803  69.9990 338.1061 0002761 268.2714  91.8129 14.98344014 24738,6950.15,96.106,573.933,570.096,0.0
56803.0,STARLINK-6029,PAYLOAD,2023-11-06 18:45:22,14.98320232,0.0002589,69.9994,337.4331,278.2963,81.7902,-0.00014846,-1.863e-05,0.0,0 STARLINK-6029,1 56803U 23078AN  23310.78150669 -.00001863  00000-0 -14846-3 0  9999,2 56803  69.9994 337.4331 0002589 278.2963  81.7902 14.98320232 25036,6950.223,96.108,573.888,570.289,0.0
56803.0,STARLINK-6029,PAYLOAD,2023-11-07 04:22:12,14.9830495,0.0002604,69.9992,336.4237,273.523,86.5631,-0.00030781,-3.761e-05,0.0,0 STARLINK-6029,1 56803U 23078AN  23311.18208451 -.00003761  00000-0 -30781-3 0  9992,2 56803  69.9992 336.4237 0002604 273.5230  86.5631 14.98304950 25098,6950.27,96.109,573.945,570.326,0.0
56803.0,STARLINK-6029,PAYLOAD,2023-11-07 10:46:44,14.98333248,0.0001969,69.9994,335.7504,269.7133,90.3801,-0.00080148,-9.643e-05,0.0,0 STARLINK-6029,1 56803U 23078AN  23311.44912315 -.00009643  00000-0 -80148-3 0  9999,2 56803  69.9994 335.7504 0001969 269.7133  90.3801 14.98333248 25130,6950.183,96.107,573.416,570.679,0.0
56803.0,STARLINK-6029,PAYLOAD,2023-11-07 12:22:52,14.9833945,0.0002018,69.9994,335.5818,270.4466,89.6462,-0.00089354,-0.0001074,0.0,0 STARLINK-6029,1 56803U 23078AN  23311.51588125 -.00010740  00000-0 -89354-3 0  9993,2 56803  69.9994 335.5818 0002018 270.4466  89.6462 14.98339450 24886,6950.164,96.106,573.431,570.626,0.0
56803.0,STARLINK-6029,PAYLOAD,2023-11-08 10:48:44,14.98329042,0.0001996,70.0006,333.2262,248.3112,111.7835,1.6675e-05,1.06e-06,0.0,0 STARLINK-6029,1 56803U 23078AN  23312.45051139  .00000106  00000-0  16675-4 0  9997,2 56803  70.0006 333.2262 0001996 248.3112 111.7835 14.98329042 25289,6950.196,96.107,573.448,570.674,0.0
56803.0,STARLINK-6029,PAYLOAD,2023-11-09 04:26:11,14.98333297,0.0002922,69.9979,331.3726,281.1975,78.8855,0.00049348,5.8e-05,0.0,0 STARLINK-6029,1 56803U 23078AN  23313.18485242  .00005800  00000-0  49348-3 0  9992,2 56803  69.9979 331.3726 0002922 281.1975  78.8855 14.98333297 25395,6950.183,96.107,574.079,570.017,0.0
56803.0,STARLINK-6029,PAYLOAD,2023-11-09 10:50:42,14.98341145,0.0002534,69.9988,330.6995,272.0771,88.0098,0.00049495,5.819e-05,0.0,0 STARLINK-6029,1 56803U 23078AN  23313.45188573  .00005819  00000-0  49495-3 0  9992,2 56803  69.9988 330.6995 0002534 272.0771  88.0098 14.98341145 25435,6950.158,96.106,573.785,570.262,0.0
56803.0,STARLINK-6029,PAYLOAD,2023-11-09 18:51:24,14.9832333,0.0002596,69.9999,329.8587,274.1607,85.9255,0.00022313,2.57e-05,0.0,0 STARLINK-6029,1 56803U 23078AN  23313.78570381  .00002570  00000-0  22313-3 0  9991,2 56803  69.9999 329.8587 0002596 274.1607  85.9255 14.98323330 25485,6950.214,96.107,573.883,570.274,0.0
56803.0,STARLINK-6029,PAYLOAD,2023-11-10 04:28:14,14.98320962,0.0002521,69.9996,328.8491,266.9717,93.1154,-0.00017003,-2.121e-05,0.0,0 STARLINK-6029,1 56803U 23078AN  23314.18627615 -.00002121  00000-0 -17003-3 0  9993,2 56803  69.9996 328.8491 0002521 266.9717  93.1154 14.98320962 25548,6950.221,96.108,573.838,570.334,0.0
56803.0,STARLINK-6029,PAYLOAD,2023-11-10 10:52:46,14.98323375,0.0002574,69.9991,328.1731,269.1219,90.9645,-0.00016381,-2.047e-05,0.0,0 STARLINK-6029,1 56803U 23078AN  23314.45331440 -.00002047  00000-0 -16381-3 0  9996,2 56803  69.9991 328.1731 0002574 269.1219  90.9645 14.98323375 25320,6950.213,96.107,573.867,570.289,0.0
56803.0,STARLINK-6029,PAYLOAD,2023-11-11 02:54:05,14.98341272,0.0002686,69.9985,326.491,267.9241,92.1611,-0.00023337,-2.877e-05,0.0,0 STARLINK-6029,1 56803U 23078AN  23315.12090195 -.00002877  00000-0 -23337-3 0  9990,2 56803  69.9985 326.4910 0002686 267.9241  92.1611 14.98341272 25680,6950.158,96.106,573.89,570.156,0.0
56803.0,STARLINK-6029,PAYLOAD,2023-11-11 10:54:45,14.98343852,0.0002684,69.9984,325.6491,268.8688,91.2163,-0.00017818,-2.219e-05,0.0,0 STARLINK-6029,1 56803U 23078AN  23315.45469667 -.00002219  00000-0 -17818-3 0  9997,2 56803  69.9984 325.6491 0002684 268.8688  91.2163 14.98343852 25472,6950.15,96.106,573.88,570.15,0.0
56803.0,STARLINK-6029,PAYLOAD,2023-11-12 02:56:06,14.98324373,0.0002663,69.9984,323.9657,267.183,92.9024,0.00014864,1.681e-05,0.0,0 STARLINK-6029,1 56803U 23078AN  23316.12229863  .00001681  00000-0  14864-3 0  9992,2 56803  69.9984 323.9657 0002663 267.1830  92.9024 14.98324373 25836,6950.21,96.107,573.926,570.224,0.0
56803.0,STARLINK-6029,PAYLOAD,2023-11-12 10:56:46,14.98329767,0.0002413,69.9989,323.1247,261.5065,98.5821,9.9209e-05,1.091e-05,0.0,0 STARLINK-6029,1 56803U 23078AN  23316.45609774  .00001091  00000-0  99209-4 0  9993,2 56803  69.9989 323.1247 0002413 261.5065  98.5821 14.98329767 25625,6950.194,96.107,573.736,570.382,0.0
56803.0,STARLINK-6029,PAYLOAD,2023-11-13 02:58:07,14.98331977,0.0002542,69.9991,321.4412,267.8322,92.2546,4.304e-05,4.21e-06,0.0,0 STARLINK-6029,1 56803U 23078AN  23317.12369755  .00000421  00000-0  43040-4 0  9998,2 56803  69.9991 321.4412 0002542 267.8322  92.2546 14.98331977 25981,6950.187,96.107,573.819,570.285,0.0
56803.0,STARLINK-6029,PAYLOAD,2023-11-13 09:22:39,14.98334084,0.0002446,69.9994,320.7681,266.4534,93.6345,6.5562e-05,6.89e-06,0.0,0 STARLINK-6029,1 56803U 23078AN  23317.39073510  .00000689  00000-0  65562-4 0  9997,2 56803  69.9994 320.7681 0002446 266.4534  93.6345 14.98334084 25767,6950.18,96.107,573.745,570.345,0.0
56803.0,STARLINK-6029,PAYLOAD,2023-11-13 17:23:20,14.98331772,0.0002183,69.9999,319.9257,276.8344,83.2567,2.5388e-05,2.1e-06,0.0,0 STARLINK-6029,1 56803U 23078AN  23317.72453814  .00000210  00000-0  25388-4 0  9995,2 56803  69.9999 319.9257 0002183 276.8344  83.2567 14.98331772 25811,6950.187,96.107,573.57,570.535,0.0
56803.0,STARLINK-6029,PAYLOAD,2023-11-14 03:00:08,14.98330009,0.0002375,69.9998,318.9172,264.2177,95.8711,-3.9688e-05,-5.66e-06,0.0,0 STARLINK-6029,1 56803U 23078AN  23318.12509947 -.00000566  00000-0 -39688-4 0  9993,2 56803  69.9998 318.9172 0002375 264.2177  95.8711 14.98330009 26131,6950.193,96.107,573.709,570.407,0.0
56803.0,STARLINK-6029,PAYLOAD,2023-11-14 09:24:41,14.98327113,0.000229,69.9999,318.2422,275.0346,85.0551,-1.582e-05,-2.82e-06,0.0,0 STARLINK-6029,1 56803U 23078AN  23318.39214122 -.00000282  00000-0 -15820-4 0  9997,2 56803  69.9999 318.2422 0002290 275.0346  85.0551 14.98327113 25917,6950.202,96.107,573.658,570.475,0.0
56803.0,STARLINK-6029,PAYLOAD,2023-11-15 03:02:09,14.98329803,0.0002655,69.9991,316.3907,268.376,91.7095,-7.5573e-06,-1.83e-06,0.0,0 STARLINK-6029,1 56803U 23078AN  23319.12649712 -.00000183  00000-0 -75573-5 0  9998,2 56803  69.9991 316.3907 0002655 268.3760  91.7095 14.98329803 26282,6950.194,96.107,573.904,570.213,0.0
56803.0,STARLINK-6029,PAYLOAD,2023-11-15 09:26:41,14.98330834,0.0002213,70.0001,315.7175,278.451,81.6398,1.9338e-05,1.38e-06,0.0,0 STARLINK-6029,1 56803U 23078AN  23319.39353723  .00000138  00000-0  19338-4 0  9995,2 56803  70.0001 315.7175 0002213 278.4510  81.6398 14.98330834 26068,6950.19,96.107,573.593,570.517,0.0
56803.0,STARLINK-6029,PAYLOAD,2023-11-15 17:27:21,14.98330081,0.0002316,70.0005,314.8761,275.6418,84.4477,3.718e-06,-4.9e-07,0.0,0 STARLINK-6029,1 56803U 23078AN  23319.72733748 -.00000049  00000-0  37180-5 0  9999,2 56803  70.0005 314.8761 0002316 275.6418  84.4477 14.98330081 26112,6950.193,96.107,573.667,570.448,0.0
56803.0,STARLINK-6029,PAYLOAD,2023-11-16 03:04:10,14.98326434,0.0002511,69.9998,313.866,274.168,85.9192,3.2941e-05,3e-06,0.0,0 STARLINK-6029,1 56803U 23078AN  23320.12789858  .00000300  00000-0  32941-4 0  9996,2 56803  69.9998 313.8660 0002511 274.1680  85.9192 14.98326434 26431,6950.204,96.107,573.814,570.324,0.0
56803.0,STARLINK-6029,PAYLOAD,2023-11-16 09:28:42,14.98326247,0.0002423,69.9999,313.1927,269.6552,90.4329,1.4009e-05,7.4e-07,0.0,0 STARLINK-6029,1 56803U 23078AN  23320.39493962  .00000074  00000-0  14009-4 0  9996,2 56803  69.9999 313.1927 0002423 269.6552  90.4329 14.98326247 26211,6950.204,96.107,573.754,570.385,0.0
56803.0,STARLINK-6029,PAYLOAD,2023-11-16 17:29:23,14.98313192,0.0002333,70.0001,312.3515,290.265,69.8258,0.00028873,3.352e-05,0.0,0 STARLINK-6029,1 56803U 23078AN  23320.72874403  .00003352  00000-0  28873-3 0  9991,2 56803  70.0001 312.3515 0002333 290.2650  69.8258 14.98313192 26521,6950.245,96.108,573.731,570.488,0.0
56803.0,STARLINK-6029,PAYLOAD,2023-11-17 03:06:11,14.98330478,0.0002592,69.9994,311.3413,267.8709,92.2153,2.4968e-05,2.05e-06,0.0,0 STARLINK-6029,1 56803U 23078AN  23321.12929558  .00000205  00000-0  24968-4 0  9994,2 56803  69.9994 311.3413 0002592 267.8709  92.2153 14.98330478 26583,6950.191,96.107,573.858,570.255,0.0
56803.0,STARLINK-6029,PAYLOAD,2023-11-17 09:30:43,14.98332086,0.0002538,69.9993,310.6685,265.9347,94.1522,3.624e-05,3.39e-06,0.0,0 STARLINK-6029,1 56803U 23078AN  23321.39633391  .00000339  00000-0  36240-4 0  9994,2 56803  69.9993 310.6685 0002538 265.9347  94.1522 14.98332086 26366,6950.186,96.107,573.815,570.287,0.0
56803.0,STARLINK-6029,PAYLOAD,2023-11-18 03:08:12,14.9832819,0.0002548,69.9995,308.8171,270.5436,89.5431,3.1316e-05,2.81e-06,0.0,0 STARLINK-6029,1 56803U 23078AN  23322.13069617  .00000281  00000-0  31316-4 0  9996,2 56803  69.9995 308.8171 0002548 270.5436  89.5431 14.98328190 26738,6950.198,96.107,573.834,570.293,0.0
56803.0,STARLINK-6029,PAYLOAD,2023-11-18 09:32:44,14.9833012,0.0002342,70.0007,308.1427,269.5386,90.5505,-0.00011328,-1.444e-05,0.0,0 STARLINK-6029,1 56803U 23078AN  23322.39773929 -.00001444  00000-0 -11328-3 0  9996,2 56803  70.0007 308.1427 0002342 269.5386  90.5505 14.98330120 26512,6950.193,96.107,573.685,570.43,0.0
